[{"OBJECT_ID":"2000-054A","OBJECT_NAME":"ASTRA 2B","NORAD_CAT_ID":"26494","OBJECT_TYPE":"PAYLOAD","PERIOD":"1436.132","INCLINATION":"1.6058","APOGEE":"35809.118","PERIGEE":"35765.460","ECCENTRICITY":"0.0005177","MEAN_MOTION":"1.00269316","TLE_LINE1":"1 26494U 00054A   16238.78927867 +.00000124 +00000-0 +00000-0 0  9995","TLE_LINE2":"2 26494 001.6058 079.9178 0005177 038.7572 178.9249 01.00269316010964","LAUNCH_DATE":"2000-09-14","LAUNCH_SITE":"FRENCH GUIANA","OWNER":"SOCIÉTÉ EUROPÉENNE DES SATELLITES","ORBIT_TYPE":"Geosynchronous","OPERATIONAL_STATUS":"Operational","satInfo":{"lng":96.70457277964479,"lat":-3.8549092322413143,"elevation":-12.32071577917534,"azimuth":218.29542722035515,"range":43064.20131189648,"height":35789.538853221085,"velocity":3.073860330686848},"x":339.4564944914455,"y":38.2229963772183,"dx":-0.3588731989487301,"dy":3.052839229249808,"maxAlt":341.99506143459257,"minAlt":341.5757825279503},{"OBJECT_ID":"2000-054B","OBJECT_NAME":"AMC-7 (GE-7)","NORAD_CAT_ID":"26495","OBJECT_TYPE":"PAYLOAD","PERIOD":"1436.105","INCLINATION":"0.0028","APOGEE":"35792.832","PERIGEE":"35780.714","ECCENTRICITY":"0.0001437","MEAN_MOTION":"1.00271156","TLE_LINE1":"1 26495U 00054B   16238.44662912  .00000061  00000-0  00000+0 0  9995","TLE_LINE2":"2 26495   0.0028  93.5608 0001437 113.0378 153.3940  1.00271156 58334","LAUNCH_DATE":"2000-09-14","LAUNCH_SITE":"FRENCH GUIANA","OWNER":"SOCIÉTÉ EUROPÉENNE DES SATELLITES","ORBIT_TYPE":"Geosynchronous","OPERATIONAL_STATUS":"Operational","satInfo":{"lng":-117.19696546393654,"lat":1.7360156373639057,"elevation":-6.877174354466942,"azimuth":72.19696546393652,"range":42437.044583908406,"height":35772.90541741799,"velocity":3.0751546789470843},"x":-307.4751656668342,"y":155.1156185049652,"dx":-1.4055019694031319,"dy":-2.7351673647976393,"maxAlt":341.8386553630003,"minAlt":341.7222775676205},{"OBJECT_ID":"2000-060A","OBJECT_NAME":"NSAT 110","NORAD_CAT_ID":"26559","OBJECT_TYPE":"PAYLOAD","PERIOD":"1436.018","INCLINATION":"0.0413","APOGEE":"35787.181","PERIGEE":"35782.948","ECCENTRICITY":"5.02e-05","MEAN_MOTION":"1.00277249","TLE_LINE1":"1 26559U 00060A   16239.41875215 -.00000380  00000-0  00000+0 0  9998","TLE_LINE2":"2 26559   0.0413 288.1903 0000502  63.0790 244.6471  1.00277249 58193","LAUNCH_DATE":"2000-10-06","LAUNCH_SITE":"FRENCH GUIANA","OWNER":"JAPAN","ORBIT_TYPE":"Geosynchronous","OPERATIONAL_STATUS":"Operational","satInfo":{"lng":52.235399124535824,"lat":0.8561184249978184,"elevation":-7.733697504094473,"azimuth":262.7646008754641,"range":42562.05035008425,"height":35801.48237188426,"velocity":3.074173355188706},"x":269.9014700487875,"y":-212.47163857774456,"dx":1.8826814164620846,"dy":2.4302371287305493,"maxAlt":341.7843847802563,"minAlt":341.7437322626921},{"OBJECT_ID":"2000-067A","OBJECT_NAME":"AMC-6 (GE-6)","NORAD_CAT_ID":"26580","OBJECT_TYPE":"PAYLOAD","PERIOD":"1436.123","INCLINATION":"0.0479","APOGEE":"35799.084","PERIGEE":"35775.168","ECCENTRICITY":"0.0002836","MEAN_MOTION":"1.00269895","TLE_LINE1":"1 26580U 00067A   16239.27101584 -.00000287  00000-0  00000+0 0  9990","TLE_LINE2":"2 26580   0.0479 295.8019 0002836 240.9369 183.7494  1.00269895 58075","LAUNCH_DATE":"2000-10-21","LAUNCH_SITE":"TYURATAM MISSILE AND SPACE COMPLEX","OWNER":"SOCIÉTÉ EUROPÉENNE DES SATELLITES","ORBIT_TYPE":"Geosynchronous","OPERATIONAL_STATUS":"Operational","satInfo":{"lng":-90.0190171502424,"lat":-1.6787565329366594,"elevation":-10.209016115212481,"azimuth":45.019017150242384,"range":42830.64679629719,"height":35792.48512129867,"velocity":3.0747734133605116},"x":-345.6461737090351,"y":-1.7913426605474057,"dx":-0.0010205538241478975,"dy":-3.074773243993538,"maxAlt":341.898697777319,"minAlt":341.66901537475235},{"OBJECT_ID":"2000-068A","OBJECT_NAME":"INTELSAT 12 (PAS 12)","NORAD_CAT_ID":"26590","OBJECT_TYPE":"PAYLOAD","PERIOD":"1436.106","INCLINATION":"0.0559","APOGEE":"35797.130","PERIGEE":"35776.452","ECCENTRICITY":"0.0002452","MEAN_MOTION":"1.0027109","TLE_LINE1":"1 26590U 00068A   16238.78943113  .00000110  00000-0  00000+0 0  9993","TLE_LINE2":"2 26590   0.0559 271.2995 0002452 276.4860 115.8519  1.00271090 57871","LAUNCH_DATE":"2000-10-29","LAUNCH_SITE":"FRENCH GUIANA","OWNER":"EUROPEAN SPACE AGENCY","ORBIT_TYPE":"Geosynchronous","OPERATIONAL_STATUS":"Operational","satInfo":{"lng":100.27677584210139,"lat":2.269560448175802,"elevation":-6.351232780872479,"azimuth":214.7232241578986,"range":42388.743041178386,"height":35783.481585693284,"velocity":3.074563432669008},"x":336.2357594871557,"y":59.403657715367686,"dx":-0.5485125527608855,"dy":3.02523954108913,"maxAlt":341.8799321219161,"minAlt":341.68134654237633},{"OBJECT_ID":"2000-072A","OBJECT_NAME":"INTELSAT 1R (PAS 1R)","NORAD_CAT_ID":"26608","OBJECT_TYPE":"PAYLOAD","PERIOD":"1436.131","INCLINATION":"0.0525","APOGEE":"35791.972","PERIGEE":"35782.595","ECCENTRICITY":"0.0001112","MEAN_MOTION":"1.00269335","TLE_LINE1":"1 26608U 00072A   16238.09643770 -.00000308  00000-0  00000+0 0  9998","TLE_LINE2":"2 26608   0.0525 293.1629 0001112 275.7967 109.4630  1.00269335 57729","LAUNCH_DATE":"2000-11-16","LAUNCH_SITE":"FRENCH GUIANA","OWNER":"UNITED STATES OF AMERICA","ORBIT_TYPE":"Geosynchronous","OPERATIONAL_STATUS":"Operational","satInfo":{"lng":-52.36281087196287,"lat":-2.1378921206615997,"elevation":-10.656141869297274,"azimuth":7.362810871962848,"range":42876.829686059325,"height":35788.58675116162,"velocity":3.0747504377018844},"x":-274.08184104625633,"y":-211.7910590024717,"dx":1.8776249159592968,"dy":-2.4348747255488883,"maxAlt":341.8303961697319,"minAlt":341.7403421519669},{"OBJECT_ID":"2000-076A","OBJECT_NAME":"ANIK F1","NORAD_CAT_ID":"26624","OBJECT_TYPE":"PAYLOAD","PERIOD":"1436.095","INCLINATION":"0.0162","APOGEE":"35799.458","PERIGEE":"35773.678","ECCENTRICITY":"0.0003057","MEAN_MOTION":"1.00271887","TLE_LINE1":"1 26624U 00076A   16238.37019778 -.00000100 +00000-0 +00000-0 0  9997","TLE_LINE2":"2 26624 000.0162 149.6627 0003057 006.2149 204.1312 01.00271887007209","LAUNCH_DATE":"2000-11-21","LAUNCH_SITE":"FRENCH GUIANA","OWNER":"CANADA","ORBIT_TYPE":"Geosynchronous","OPERATIONAL_STATUS":"Operational","satInfo":{"lng":-105.02511953617032,"lat":0.0844956175825168,"elevation":-8.493591187032258,"azimuth":60.02511953617032,"range":42620.667462958096,"height":35775.12941189828,"velocity":3.0754643451619357},"x":-333.733492918941,"y":87.16356892203179,"dx":-0.7972910657338055,"dy":-2.9703211770553346,"maxAlt":341.9022895660195,"minAlt":341.65470584222913},{"OBJECT_ID":"2000-081B","OBJECT_NAME":"AMC-8 (GE-8)","NORAD_CAT_ID":"26639","OBJECT_TYPE":"PAYLOAD","PERIOD":"1436.048","INCLINATION":"0.0661","APOGEE":"35795.848","PERIGEE":"35775.449","ECCENTRICITY":"0.0002419","MEAN_MOTION":"1.00275168","TLE_LINE1":"1 26639U 00081B   16239.27202251  .00000076  00000-0  00000+0 0  9999","TLE_LINE2":"2 26639   0.0661 287.8686 0002419 211.2755 154.7363  1.00275168 57354","LAUNCH_DATE":"2000-12-20","LAUNCH_SITE":"FRENCH GUIANA","OWNER":"SOCIÉTÉ EUROPÉENNE DES SATELLITES","ORBIT_TYPE":"Geosynchronous","OPERATIONAL_STATUS":"Operational","satInfo":{"lng":-120.99176166093756,"lat":-1.090607542954353,"elevation":-9.64239560648815,"azimuth":75.99176166093753,"range":42737.171155413234,"height":35762.88541440773,"velocity":3.075838596583399},"x":-296.3305395569418,"y":174.94540334452006,"dx":-1.5837948797928254,"dy":-2.636736022239269,"maxAlt":341.8676201617183,"minAlt":341.67171401813425},{"OBJECT_ID":"2001-002A","OBJECT_NAME":"TURKSAT 2A","NORAD_CAT_ID":"26666","OBJECT_TYPE":"PAYLOAD","PERIOD":"1436.177","INCLINATION":"0.536","APOGEE":"35802.547","PERIGEE":"35773.782","ECCENTRICITY":"0.0003411","MEAN_MOTION":"1.00266192","TLE_LINE1":"1 26666U 01002A   16238.19527586  .00000000  00000-0  10000-3 0  9996","TLE_LINE2":"2 26666   0.5360  84.7113 0003411  53.4730 307.8437  1.00266192 57244","LAUNCH_DATE":"2001-01-10","LAUNCH_SITE":"FRENCH GUIANA","OWNER":"TURKEY","ORBIT_TYPE":"Geosynchronous","OPERATIONAL_STATUS":"Operational","satInfo":{"lng":97.95342345143183,"lat":-2.838138895549142,"elevation":-11.336401801309286,"azimuth":217.04657654856817,"range":42950.586893845015,"height":35786.149119671536,"velocity":3.074198281436941},"x":338.46857568489344,"y":45.64888530112289,"dx":-0.4253708281608556,"dy":3.0446271909939298,"maxAlt":341.931955435794,"minAlt":341.65570462839185},{"OBJECT_ID":"2001-011A","OBJECT_NAME":"EUTE 28A (EB 1)","NORAD_CAT_ID":"26719","OBJECT_TYPE":"PAYLOAD","PERIOD":"1436.141","INCLINATION":"0.0695","APOGEE":"35799.570","PERIGEE":"35775.384","ECCENTRICITY":"0.0002868","MEAN_MOTION":"1.00268644","TLE_LINE1":"1 26719U 01011A   16238.08104793 +.00000130 +00000-0 +00000-0 0  9994","TLE_LINE2":"2 26719 000.0695 336.7071 0002868 195.5082 223.8190 01.00268644056656","LAUNCH_DATE":"2001-03-08","LAUNCH_SITE":"FRENCH GUIANA","OWNER":"EUROPEAN TELECOMMUNICATIONS SATELLITE ORGANIZATION (EUTELSAT)","ORBIT_TYPE":"Geosynchronous","OPERATIONAL_STATUS":"Operational","satInfo":{"lng":85.70260054005215,"lat":0.12176136888568849,"elevation":-8.458035389807554,"azimuth":229.2973994599478,"range":42612.37299127531,"height":35770.87279827428,"velocity":3.074969814528019},"x":340.6619341390151,"y":-27.64756782833437,"dx":0.230418147659226,"dy":3.0663246464599556,"maxAlt":341.903365181887,"minAlt":341.6710897767825}]